ORBCOMM FM05            
1 25117U 97084F   25115.56610476  .00003320  00000+0  96791-3 0  9995
2 25117  45.0140 260.6765 0002136 269.6129  90.4478 14.45753530432997
ORBCOMM FM06            
1 25118U 97084G   25115.87109704  .00003224  00000+0  93839-3 0  9990
2 25118  45.0133 259.0073 0001490 245.6055 280.7392 14.45891566433989
ORBCOMM FM07            
1 25119U 97084H   25115.78325156  .00003161  00000+0  92122-3 0  9996
2 25119  45.0126 260.1972 0002949 274.5061  85.5453 14.45872678433950
ORBCOMM FM03            
1 25158U 98007B   25115.47325358  .00002255  00000+0  83716-3 0  9997
2 25158 107.9649  27.3290 0046325 339.7103  20.2195 14.34357176416627
ORBCOMM FM04            
1 25159U 98007C   25115.53641177  .00002324  00000+0  85889-3 0  9995
2 25159 107.9633  30.6433 0042149 336.9293  22.9954 14.34613085416677
ORBCOMM FM17            
1 25413U 98046A   25115.76829484  .00001303  00000+0  50257-3 0  9992
2 25413  44.9928 144.9771 0004668 290.4120  69.6225 14.34985323395816
ORBCOMM FM18            
1 25414U 98046B   25115.84609475  .00002979  00000+0  10136-2 0  9999
2 25414  44.9925  63.3969 0005702   2.6665 357.4213 14.38404872396886
ORBCOMM FM19            
1 25415U 98046C   25115.86081990  .00002916  00000+0  99727-3 0  9993
2 25415  44.9935  65.2439 0004661 352.4314  35.9306 14.38210742396872
